[{"OBJECT_NAME":"GEESAT-3 03","OBJECT_ID":"2024-159C","EPOCH":"2026-03-09T20:03:36.088704","MEAN_MOTION":14.83823976,"ECCENTRICITY":0.00058574,"INCLINATION":49.9919,"RA_OF_ASC_NODE":182.805,"ARG_OF_PERICENTER":109.1955,"MEAN_ANOMALY":250.9617,"EPHEMERIS_TYPE":0,"CLASSIFICATION_TYPE":"U","NORAD_CAT_ID":61013,"ELEMENT_SET_NO":999,"REV_AT_EPOCH":8208,"BSTAR":0.00045710124,"MEAN_MOTION_DOT":3.605e-5,"MEAN_MOTION_DDOT":0},{"OBJECT_NAME":"ESSAIM-1","OBJECT_ID":"2004-049C","EPOCH":"2026-03-09T14:04:01.931808","MEAN_MOTION":14.86068731,"ECCENTRICITY":0.0001387,"INCLINATION":98.3189,"RA_OF_ASC_NODE":293.2189,"ARG_OF_PERICENTER":70.7658,"MEAN_ANOMALY":289.3706,"EPHEMERIS_TYPE":0,"CLASSIFICATION_TYPE":"U","NORAD_CAT_ID":28494,"ELEMENT_SET_NO":999,"REV_AT_EPOCH":14349,"BSTAR":0.00020144,"MEAN_MOTION_DOT":1.704e-5,"MEAN_MOTION_DDOT":0}]
